NORAD_CAT_ID,OBJECT_NAME,OBJECT_TYPE,EPOCH,MEAN_MOTION,ECCENTRICITY,INCLINATION,RA_OF_ASC_NODE,ARG_OF_PERICENTER,MEAN_ANOMALY,BSTAR,MEAN_MOTION_DOT,MEAN_MOTION_DDOT,TLE_LINE0,TLE_LINE1,TLE_LINE2,SEMIMAJOR_AXIS,PERIOD,APOGEE,PERIGEE,DECAYED
51731.0,STARLINK-3514,PAYLOAD,2022-10-14 06:41:53,15.08845343,0.0001748,53.2186,136.5209,51.7584,308.3565,0.00011467,1.538e-05,0.0,0 STARLINK-3514,1 51731U 22016T   22287.27909352  .00001538  00000-0  11467-3 0  9995,2 51731  53.2186 136.5209 0001748  51.7584 308.3565 15.08845343 36000,6917.864000000001,95.437,540.938,538.52,0.0
51731.0,STARLINK-3514,PAYLOAD,2022-10-14 21:00:23,15.08830701,0.0001947,53.2188,133.8455,54.1579,305.9594,1.4204000000000008e-05,-6.2e-07,0.0,0 STARLINK-3514,1 51731U 22016T   22287.87526723 -.00000062  00000-0  14204-4 0  9993,2 51731  53.2188 133.8455 0001947  54.1579 305.9594 15.08830701 36093,6917.909000000002,95.438,541.121,538.427,0.0
51731.0,STARLINK-3514,PAYLOAD,2022-10-15 06:32:41,15.08838526,0.0001788,53.2186,132.0612,54.7962,305.3198,4.3623e-05,4.06e-06,0.0,0 STARLINK-3514,1 51731U 22016T   22288.27270133  .00000406  00000-0  43623-4 0  9997,2 51731  53.2186 132.0612 0001788  54.7962 305.3198 15.08838526 36156,6917.885,95.438,540.987,538.513,0.0
51731.0,STARLINK-3514,PAYLOAD,2022-10-15 17:40:23,15.08849322,0.0001501,53.2176,129.9781,42.7652,317.3457,-0.00012342,-2.252e-05,0.0,0 STARLINK-3514,1 51731U 22016T   22288.73638083 -.00002252  00000-0 -12342-3 0  9996,2 51731  53.2176 129.9781 0001501  42.7652 317.3457 15.08849322 36228,6917.852,95.437,540.755,538.679,0.0
51731.0,STARLINK-3514,PAYLOAD,2022-10-16 01:37:19,15.08842456,0.0001595999999999,53.2183,128.4919,52.0426,308.071,-6.7065e-05,-1.355e-05,0.0,0 STARLINK-3514,1 51731U 22016T   22289.06758150 -.00001355  00000-0 -67065-4 0  9997,2 51731  53.2183 128.4919 0001596  52.0426 308.0710 15.08842456 36275,6917.873000000001,95.437,540.842,538.634,0.0
51731.0,STARLINK-3514,PAYLOAD,2022-10-16 19:06:34,15.08823899,0.0001529,53.2181,125.2207,52.7576,307.3555,-1.6238e-05,-5.46e-06,0.0,0 STARLINK-3514,1 51731U 22016T   22289.79623345 -.00000546  00000-0 -16238-4 0  9991,2 51731  53.2181 125.2207 0001529  52.7576 307.3555 15.08823899 37491,6917.93,95.439,540.852,538.737,0.0
51731.0,STARLINK-3514,PAYLOAD,2022-10-17 06:14:16,15.08845028,0.0001585999999999,53.2179,123.1387,52.2839,307.8296,-0.00017152,-3.017e-05,0.0,0 STARLINK-3514,1 51731U 22016T   22290.25990807 -.00003017  00000-0 -17152-3 0  9995,2 51731  53.2179 123.1387 0001586  52.2839 307.8296 15.08845028 37567,6917.865,95.437,540.827,538.633,0.0
51731.0,STARLINK-3514,PAYLOAD,2022-10-17 12:35:48,15.08834897,0.0001571,53.2179,121.9492,52.2901,307.8233,-2.4091e-05,-6.71e-06,0.0,0 STARLINK-3514,1 51731U 22016T   22290.52487071 -.00000671  00000-0 -24091-4 0  9993,2 51731  53.2179 121.9492 0001571  52.2901 307.8233 15.08834897 36498,6917.896,95.438,540.8480000000002,538.674,0.0
51731.0,STARLINK-3514,PAYLOAD,2022-10-17 18:57:21,15.08836993,0.000165,53.2177,120.7601,51.9183,308.1958,5.4732e-05,5.83e-06,0.0,0 STARLINK-3514,1 51731U 22016T   22290.78982724  .00000583  00000-0  54732-4 0  9991,2 51731  53.2177 120.7601 0001650  51.9183 308.1958 15.08836993 36533,6917.89,95.438,540.896,538.613,0.0
51731.0,STARLINK-3514,PAYLOAD,2022-10-18 12:26:35,15.08840863,0.0001679,53.2182,117.49,49.9033,310.2106,0.00011925,1.6100000000000002e-05,0.0,0 STARLINK-3514,1 51731U 22016T   22291.51846311  .00001610  00000-0  11925-3 0  9992,2 51731  53.2182 117.4900 0001679  49.9033 310.2106 15.08840863 37751,6917.878000000002,95.438,540.904,538.581,0.0
51731.0,STARLINK-3514,PAYLOAD,2022-10-18 18:48:07,15.08841248,0.0001618,53.2182,116.3001,51.5251,308.5886,0.00011731,1.58e-05,0.0,0 STARLINK-3514,1 51731U 22016T   22291.78342279  .00001580  00000-0  11731-3 0  9996,2 51731  53.2182 116.3001 0001618  51.5251 308.5886 15.08841248 36689,6917.877,95.437,540.861,538.622,0.0
51731.0,STARLINK-3514,PAYLOAD,2022-10-19 12:17:22,15.0883631,0.0001576999999999,53.2183,113.0294,52.1989,307.9146,2.4144e-05,9.6e-07,0.0,0 STARLINK-3514,1 51731U 22016T   22292.51206933  .00000096  00000-0  24144-4 0  9998,2 51731  53.2183 113.0294 0001577  52.1989 307.9146 15.08836310 36795,6917.892,95.438,540.8480000000002,538.6659999999998,0.0
51731.0,STARLINK-3514,PAYLOAD,2022-10-19 15:28:08,15.08840666,0.0001696,53.2188,112.4358,49.5693,310.5447,3.884e-05,3.3e-06,0.0,0 STARLINK-3514,1 51731U 22016T   22292.64454636  .00000330  00000-0  38840-4 0  9996,2 51731  53.2188 112.4358 0001696  49.5693 310.5447 15.08840666 36814,6917.878000000002,95.438,540.9169999999998,538.57,0.0
51731.0,STARLINK-3514,PAYLOAD,2022-10-20 20:05:04,15.08850133,0.0001748,53.2186,107.0826,52.348,307.767,-0.00015735,-2.792e-05,0.0,0 STARLINK-3514,1 51731U 22016T   22293.83686258 -.00002792  00000-0 -15735-3 0  9998,2 51731  53.2186 107.0826 0001748  52.3480 307.7670 15.08850133 36991,6917.849,95.437,540.924,538.505,0.0
51731.0,STARLINK-3514,PAYLOAD,2022-10-21 11:58:56,15.08844349,0.0001804,53.2183,104.1084,52.2315,307.884,-3.3996e-06,-3.42e-06,0.0,0 STARLINK-3514,1 51731U 22016T   22294.49926043 -.00000342  00000-0 -33996-5 0  9990,2 51731  53.2183 104.1084 0001804  52.2315 307.8840 15.08844349 37095,6917.8669999999975,95.437,540.98,538.484,0.0
51731.0,STARLINK-3514,PAYLOAD,2022-10-21 18:20:28,15.08848891,0.0001825,53.2185,102.9187,53.6027,306.5133,3.3303e-05,2.42e-06,0.0,0 STARLINK-3514,1 51731U 22016T   22294.76421527  .00000242  00000-0  33303-4 0  9995,2 51731  53.2185 102.9187 0001825  53.6027 306.5133 15.08848891 37137,6917.853,95.437,540.981,538.456,0.0
51731.0,STARLINK-3514,PAYLOAD,2022-10-22 03:52:48,15.08825415,0.0001936,53.2185,101.1351,50.0206,310.0956,-8.463399999999999e-05,-1.634e-05,0.0,0 STARLINK-3514,1 51731U 22016T   22295.16167337 -.00001634  00000-0 -84634-4 0  9997,2 51731  53.2185 101.1351 0001936  50.0206 310.0956 15.08825415 38304,6917.925,95.438,541.129,538.451,0.0
51731.0,STARLINK-3514,PAYLOAD,2022-10-22 11:49:44,15.08825666,0.0001844999999999,53.2185,99.6483,51.1839,308.9318,-7.6657e-05,-1.507e-05,0.0,0 STARLINK-3514,1 51731U 22016T   22295.49287514 -.00001507  00000-0 -76657-4 0  9998,2 51731  53.2185  99.6483 0001845  51.1839 308.9318 15.08825666 37242,6917.924,95.438,541.066,538.513,0.0
51731.0,STARLINK-3514,PAYLOAD,2022-10-22 21:22:03,15.08830034,0.0001874,53.2185,97.8641,51.8923,308.2237,-1.2732e-05,-4.91e-06,0.0,0 STARLINK-3514,1 51731U 22016T   22295.89031284 -.00000491  00000-0 -12732-4 0  9998,2 51731  53.2185  97.8641 0001874  51.8923 308.2237 15.08830034 37306,6917.911,95.438,541.072,538.479,0.0
51731.0,STARLINK-3514,PAYLOAD,2022-10-23 11:40:30,15.08839901,0.0001885,53.2187,95.188,52.4939,307.6224,4.207e-06,-2.21e-06,0.0,0 STARLINK-3514,1 51731U 22016T   22296.48646817 -.00000221  00000-0  42070-5 0  9997,2 51731  53.2187  95.1880 0001885  52.4939 307.6224 15.08839901 38504,6917.880999999999,95.438,541.05,538.442,0.0
51731.0,STARLINK-3514,PAYLOAD,2022-10-23 19:37:26,15.08843495,0.0001902,53.2188,93.7012,52.5109,307.6056,3.9014e-05,3.33e-06,0.0,0 STARLINK-3514,1 51731U 22016T   22296.81766476  .00000333  00000-0  39014-4 0  9994,2 51731  53.2188  93.7012 0001902  52.5109 307.6056 15.08843495 37444,6917.87,95.437,541.05,538.419,0.0
51731.0,STARLINK-3514,PAYLOAD,2022-10-24 03:34:21,15.08849674,0.0001859,53.2189,92.2144,53.2348,306.8815,3.6818e-05,2.98e-06,0.0,0 STARLINK-3514,1 51731U 22016T   22297.14885986  .00000298  00000-0  36818-4 0  9998,2 51731  53.2189  92.2144 0001859  53.2348 306.8815 15.08849674 38607,6917.851,95.437,541.002,538.43,0.0
51731.0,STARLINK-3514,PAYLOAD,2022-10-24 11:31:18,15.0883119,0.0001888,53.2189,90.7277,53.2318,306.8847,9.8323e-05,1.277e-05,0.0,0 STARLINK-3514,1 51731U 22016T   22297.48007031  .00001277  00000-0  98323-4 0  9999,2 51731  53.2189  90.7277 0001888  53.2318 306.8847 15.08831190 37547,6917.906999999997,95.438,541.078,538.466,0.0
51731.0,STARLINK-3514,PAYLOAD,2022-10-24 13:06:41,15.08830907,0.0001885999999999,53.2189,90.4304,53.3771,306.7394,8.6026e-05,1.081e-05,0.0,0 STARLINK-3514,1 51731U 22016T   22297.54631118  .00001081  00000-0  86026-4 0  9995,2 51731  53.2189  90.4304 0001886  53.3771 306.7394 15.08830907 38662,6917.908,95.438,541.078,538.4680000000002,0.0
51731.0,STARLINK-3514,PAYLOAD,2022-10-24 19:28:13,15.08833281,0.0001867,53.2189,89.2409,52.6072,307.509,8.2586e-05,1.026e-05,0.0,0 STARLINK-3514,1 51731U 22016T   22297.81127086  .00001026  00000-0  82586-4 0  9995,2 51731  53.2189  89.2409 0001867  52.6072 307.5090 15.08833281 37590,6917.901,95.438,541.057,538.474,0.0
51731.0,STARLINK-3514,PAYLOAD,2022-10-25 03:25:09,15.08839552,0.0001875,53.219,87.7542,52.5687,307.5475,7.7466e-05,9.45e-06,0.0,0 STARLINK-3514,1 51731U 22016T   22298.14246720  .00000945  00000-0  77466-4 0  9999,2 51731  53.2190  87.7542 0001875  52.5687 307.5475 15.08839552 38756,6917.882,95.438,541.044,538.45,0.0
51731.0,STARLINK-3514,PAYLOAD,2022-10-25 11:22:04,15.08845074,0.0001864,53.2191,86.2674,52.1916,307.9245,7.3204e-05,8.77e-06,0.0,0 STARLINK-3514,1 51731U 22016T   22298.47366302  .00000877  00000-0  73204-4 0  9994,2 51731  53.2191  86.2674 0001864  52.1916 307.9245 15.08845074 37693,6917.865,95.437,541.019,538.44,0.0
51731.0,STARLINK-3514,PAYLOAD,2022-10-25 19:19:00,15.0883794,0.0001867,53.2192,84.7807,52.5916,307.5246,-2.7535e-05,-7.26e-06,0.0,0 STARLINK-3514,1 51731U 22016T   22298.80486990 -.00000726  00000-0 -27535-4 0  9998,2 51731  53.2192  84.7807 0001867  52.5916 307.5246 15.08837940 37748,6917.887,95.438,541.043,538.46,0.0
51731.0,STARLINK-3514,PAYLOAD,2022-10-26 04:51:19,15.08842688,0.0001885999999999,53.2193,82.9966,51.3956,308.7205,-2.5616e-05,-6.96e-06,0.0,0 STARLINK-3514,1 51731U 22016T   22299.20230665 -.00000696  00000-0 -25616-4 0  9993,2 51731  53.2193  82.9966 0001886  51.3956 308.7205 15.08842688 38910,6917.871999999999,95.437,541.0419999999998,538.432,0.0
